[
    {
        "Altitude(m)": 610399.5574163431,
        "Argument of Periapsis(deg)": 0.0,
        "Eccentricity": 0.0,
        "Inclination(deg)": 60.0,
        "Latitude(deg)": 52.11141378504824,
        "Longitude(deg)": 157.58441001442637,
        "Mean Anomaly(deg)": 65.45449999999998,
        "RAAN(deg)": 210.0,
        "Satellite Name": "Test1 928",
        "Satellite Number": 928,
        "Semi-Major Axis(m)": 6980739.136638005,
        "Time(s)": 0
    },
    {
        "Altitude(m)": 610481.7080054384,
        "Argument of Periapsis(deg)": 0.00010418945913296404,
        "Eccentricity": 0.0,
        "Inclination(deg)": 60.0,
        "Latitude(deg)": 52.471014913756825,
        "Longitude(deg)": 158.3665489793271,
        "Mean Anomaly(deg)": 66.07460614546183,
        "RAAN(deg)": 209.99957995086027,
        "Satellite Name": "Test1 928",
        "Satellite Number": 928,
        "Semi-Major Axis(m)": 6980739.136638005,
        "Time(s)": 10
    },
    {
        "Altitude(m)": 610562.3973972866,
        "Argument of Periapsis(deg)": 0.0002083789182659281,
        "Eccentricity": 0.0,
        "Inclination(deg)": 60.0,
        "Latitude(deg)": 52.82476860537851,
        "Longitude(deg)": 159.16210099142702,
        "Mean Anomaly(deg)": 66.69471229092366,
        "RAAN(deg)": 209.99915990172056,
        "Satellite Name": "Test1 928",
        "Satellite Number": 928,
        "Semi-Major Axis(m)": 6980739.136638005,
        "Time(s)": 20
    },
    {
        "Altitude(m)": 610641.5781261878,
        "Argument of Periapsis(deg)": 0.00031256837739889213,
        "Eccentricity": 0.0,
        "Inclination(deg)": 60.0,
        "Latitude(deg)": 53.172505332119556,
        "Longitude(deg)": 159.9712305593238,
        "Mean Anomaly(deg)": 67.31481843638551,
        "RAAN(deg)": 209.99873985258077,
        "Satellite Name": "Test1 928",
        "Satellite Number": 928,
        "Semi-Major Axis(m)": 6980739.136638005,
        "Time(s)": 30
    },
    {
        "Altitude(m)": 610719.2036829022,
        "Argument of Periapsis(deg)": 0.0004167578365318562,
        "Eccentricity": 0.0,
        "Inclination(deg)": 60.0,
        "Latitude(deg)": 53.51405209029118,
        "Longitude(deg)": 160.7940905788243,
        "Mean Anomaly(deg)": 67.93492458184734,
        "RAAN(deg)": 209.99831980344106,
        "Satellite Name": "Test1 928",
        "Satellite Number": 928,
        "Semi-Major Axis(m)": 6980739.136638005,
        "Time(s)": 40
    },
    {
        "Altitude(m)": 610795.2285369707,
        "Argument of Periapsis(deg)": 0.0005209472956648203,
        "Eccentricity": 0.0,
        "Inclination(deg)": 60.0,
        "Latitude(deg)": 53.849232522280666,
        "Longitude(deg)": 161.6308199187395,
        "Mean Anomaly(deg)": 68.55503072730914,
        "RAAN(deg)": 209.9978997543013,
        "Satellite Name": "Test1 928",
        "Satellite Number": 928,
        "Semi-Major Axis(m)": 6980739.136638005,
        "Time(s)": 50
    },
    {
        "Altitude(m)": 610869.6081585595,
        "Argument of Periapsis(deg)": 0.0006251367547977843,
        "Eccentricity": 0.0,
        "Inclination(deg)": 60.0,
        "Latitude(deg)": 54.17786706284556,
        "Longitude(deg)": 162.48154245391117,
        "Mean Anomaly(deg)": 69.17513687277096,
        "RAAN(deg)": 209.99747970516154,
        "Satellite Name": "Test1 928",
        "Satellite Number": 928,
        "Semi-Major Axis(m)": 6980739.136638005,
        "Time(s)": 60
    },
    {
        "Altitude(m)": 610942.2990397766,
        "Argument of Periapsis(deg)": 0.0007293262139307483,
        "Eccentricity": 0.0,
        "Inclination(deg)": 60.0,
        "Latitude(deg)": 54.49977311139647,
        "Longitude(deg)": 163.34636603689952,
        "Mean Anomaly(deg)": 69.79524301823277,
        "RAAN(deg)": 209.9970596560218,
        "Satellite Name": "Test1 928",
        "Satellite Number": 928,
        "Semi-Major Axis(m)": 6980739.136638005,
        "Time(s)": 70
    },
    {
        "Altitude(m)": 611013.2587154954,
        "Argument of Periapsis(deg)": 0.0008335156730637124,
        "Eccentricity": 0.0,
        "Inclination(deg)": 60.0,
        "Latitude(deg)": 54.81476523189724,
        "Longitude(deg)": 164.22537990107506,
        "Mean Anomaly(deg)": 70.41534916369464,
        "RAAN(deg)": 209.9966396068821,
        "Satellite Name": "Test1 928",
        "Satellite Number": 928,
        "Semi-Major Axis(m)": 6980739.136638005,
        "Time(s)": 80
    },
    {
        "Altitude(m)": 611082.4457836545,
        "Argument of Periapsis(deg)": 0.0009377051321966765,
        "Eccentricity": 0.0,
        "Inclination(deg)": 60.0,
        "Latitude(deg)": 55.12265538193437,
        "Longitude(deg)": 165.11865352790866,
        "Mean Anomaly(deg)": 71.03545530915646,
        "RAAN(deg)": 209.99621955774234,
        "Satellite Name": "Test1 928",
        "Satellite Number": 928,
        "Semi-Major Axis(m)": 6980739.136638005,
        "Time(s)": 90
    },
    {
        "Altitude(m)": 611149.819925044,
        "Argument of Periapsis(deg)": 0.0010418945913296407,
        "Eccentricity": 0.0,
        "Inclination(deg)": 60.0,
        "Latitude(deg)": 55.42325317242009,
        "Longitude(deg)": 166.02623547417625,
        "Mean Anomaly(deg)": 71.65556145461828,
        "RAAN(deg)": 209.99579950860257,
        "Satellite Name": "Test1 928",
        "Satellite Number": 928,
        "Semi-Major Axis(m)": 6980739.136638005,
        "Time(s)": 100
    },
    {
        "Altitude(m)": 611215.3419225478,
        "Argument of Periapsis(deg)": 0.0011460840504626045,
        "Eccentricity": 0.0,
        "Inclination(deg)": 60.0,
        "Latitude(deg)": 55.716366159259316,
        "Longitude(deg)": 166.94815065642746,
        "Mean Anomaly(deg)": 72.27566760008014,
        "RAAN(deg)": 209.99537945946284,
        "Satellite Name": "Test1 928",
        "Satellite Number": 928,
        "Semi-Major Axis(m)": 6980739.136638005,
        "Time(s)": 110
    },
    {
        "Altitude(m)": 611278.9736798399,
        "Argument of Periapsis(deg)": 0.0012502735095955685,
        "Eccentricity": 0.0,
        "Inclination(deg)": 60.0,
        "Latitude(deg)": 56.00180016813373,
        "Longitude(deg)": 167.88439913041694,
        "Mean Anomaly(deg)": 72.89577374554196,
        "RAAN(deg)": 209.99495941032313,
        "Satellite Name": "Test1 928",
        "Satellite Number": 928,
        "Semi-Major Axis(m)": 6980739.136638005,
        "Time(s)": 120
    },
    {
        "Altitude(m)": 611340.6782395348,
        "Argument of Periapsis(deg)": 0.0013544629687285324,
        "Eccentricity": 0.0,
        "Inclination(deg)": 60.0,
        "Latitude(deg)": 56.27935965335376,
        "Longitude(deg)": 168.83495486634482,
        "Mean Anomaly(deg)": 73.51587989100382,
        "RAAN(deg)": 209.99453936118337,
        "Satellite Name": "Test1 928",
        "Satellite Number": 928,
        "Semi-Major Axis(m)": 6980739.136638005,
        "Time(s)": 130
    },
    {
        "Altitude(m)": 611400.4198008153,
        "Argument of Periapsis(deg)": 0.0014586524278614966,
        "Eccentricity": 0.0,
        "Inclination(deg)": 60.0,
        "Latitude(deg)": 56.54884809147393,
        "Longitude(deg)": 169.79976302255577,
        "Mean Anomaly(deg)": 74.13598603646564,
        "RAAN(deg)": 209.9941193120436,
        "Satellite Name": "Test1 928",
        "Satellite Number": 928,
        "Semi-Major Axis(m)": 6980739.136638005,
        "Time(s)": 140
    },
    {
        "Altitude(m)": 611458.1637364131,
        "Argument of Periapsis(deg)": 0.0015628418869944607,
        "Eccentricity": 0.0,
        "Inclination(deg)": 60.0,
        "Latitude(deg)": 56.810068410062534,
        "Longitude(deg)": 170.77873876076274,
        "Mean Anomaly(deg)": 74.75609218192744,
        "RAAN(deg)": 209.99369926290387,
        "Satellite Name": "Test1 928",
        "Satellite Number": 928,
        "Semi-Major Axis(m)": 6980739.136638005,
        "Time(s)": 150
    },
    {
        "Altitude(m)": 611513.8766091174,
        "Argument of Periapsis(deg)": 0.0016670313461274247,
        "Eccentricity": 0.0,
        "Inclination(deg)": 60.0,
        "Latitude(deg)": 57.06282345167863,
        "Longitude(deg)": 171.7717661089766,
        "Mean Anomaly(deg)": 75.37619832738928,
        "RAAN(deg)": 209.99327921376417,
        "Satellite Name": "Test1 928",
        "Satellite Number": 928,
        "Semi-Major Axis(m)": 6980739.136638005,
        "Time(s)": 160
    },
    {
        "Altitude(m)": 611567.5261876442,
        "Argument of Periapsis(deg)": 0.0017712208052603888,
        "Eccentricity": 0.0,
        "Inclination(deg)": 60.0,
        "Latitude(deg)": 57.30691647272008,
        "Longitude(deg)": 172.77869537996094,
        "Mean Anomaly(deg)": 75.99630447285112,
        "RAAN(deg)": 209.9928591646244,
        "Satellite Name": "Test1 928",
        "Satellite Number": 928,
        "Semi-Major Axis(m)": 6980739.136638005,
        "Time(s)": 170
    },
    {
        "Altitude(m)": 611619.0814619364,
        "Argument of Periapsis(deg)": 0.001875410264393353,
        "Eccentricity": 0.0,
        "Inclination(deg)": 60.0,
        "Latitude(deg)": 57.54215167636407,
        "Longitude(deg)": 173.79934219314111,
        "Mean Anomaly(deg)": 76.61641061831295,
        "RAAN(deg)": 209.99243911548464,
        "Satellite Name": "Test1 928",
        "Satellite Number": 928,
        "Semi-Major Axis(m)": 6980739.136638005,
        "Time(s)": 180
    },
    {
        "Altitude(m)": 611668.5126578672,
        "Argument of Periapsis(deg)": 0.0019795997235263173,
        "Eccentricity": 0.0,
        "Inclination(deg)": 60.0,
        "Latitude(deg)": 57.76833477835295,
        "Longitude(deg)": 174.83348661053836,
        "Mean Anomaly(deg)": 77.23651676377476,
        "RAAN(deg)": 209.9920190663449,
        "Satellite Name": "Test1 928",
        "Satellite Number": 928,
        "Semi-Major Axis(m)": 6980739.136638005,
        "Time(s)": 190
    }
]